{
  "type": "FeatureCollection",
  "features": [
    {
      "type": "Feature",
      "properties": {
        "norad_id": 44709,
        "name": "BEIDOU-3 IGSO-3 (C40)",
        "group": "beidou",
        "lat": 31.941071287728075,
        "lon": 77.09998408201452,
        "alt_km": 35673.766665277224,
        "timestamp": "2025-12-18T14:52:08.291355+00:00",
        "meta_object_name": "BEIDOU-3 IGSO-3 (C40)",
        "meta_object_id": "2019-073A",
        "meta_epoch": "2025-11-20T07:11:22.740000",
        "meta_mean_motion": 1.00250097,
        "meta_eccentricity": 0.0044538,
        "meta_inclination": 55.163,
        "meta_ra_of_asc_node": 283.159,
        "meta_arg_of_pericenter": 191.5856,
        "meta_mean_anomaly": 168.2409,
        "meta_ephemeris_type": 0,
        "meta_classification_type": "U",
        "meta_norad_cat_id": 44709,
        "meta_element_set_no": 999,
        "meta_rev_at_epoch": 2236,
        "meta_bstar": 0,
        "meta_mean_motion_dot": -2.06e-06,
        "meta_mean_motion_ddot": 0,
        "tle_line1": "1 44709U 19073A   25324.29956875 -.00000206  00000+0  00000+0 0  9998",
        "tle_line2": "2 44709  55.1630 283.1590 0044538 191.5856 168.2409  1.00250097 22360"
      },
      "geometry": {
        "type": "Point",
        "coordinates": [
          77.09998408201452,
          31.941071287728075
        ]
      }
    },
    {
      "type": "Feature",
      "properties": {
        "norad_id": 44793,
        "name": "BEIDOU-3 M22 (C44)",
        "group": "beidou",
        "lat": -24.559323245802734,
        "lon": -73.15486910512243,
        "alt_km": 21521.60769874515,
        "timestamp": "2025-12-18T14:52:08.291370+00:00",
        "meta_object_name": "BEIDOU-3 M22 (C44)",
        "meta_object_id": "2019-078A",
        "meta_epoch": "2025-12-17T14:11:57.933600",
        "meta_mean_motion": 1.86232151,
        "meta_eccentricity": 0.00059947,
        "meta_inclination": 54.1037,
        "meta_ra_of_asc_node": 306.2155,
        "meta_arg_of_pericenter": 24.2976,
        "meta_mean_anomaly": 335.7178,
        "meta_ephemeris_type": 0,
        "meta_classification_type": "U",
        "meta_norad_cat_id": 44793,
        "meta_element_set_no": 999,
        "meta_rev_at_epoch": 4126,
        "meta_bstar": 0,
        "meta_mean_motion_dot": -8.9e-07,
        "meta_mean_motion_ddot": 0,
        "tle_line1": "1 44793U 19078A   25351.59164275 -.00000089  00000+0  00000+0 0  9993",
        "tle_line2": "2 44793  54.1037 306.2155 0005994  24.2976 335.7178  1.86232151 41264"
      },
      "geometry": {
        "type": "Point",
        "coordinates": [
          -73.15486910512243,
          -24.559323245802734
        ]
      }
    },
    {
      "type": "Feature",
      "properties": {
        "norad_id": 44794,
        "name": "BEIDOU-3 M21 (C43)",
        "group": "beidou",
        "lat": -42.64933262771349,
        "lon": 167.97167143156085,
        "alt_km": 21541.468058792398,
        "timestamp": "2025-12-18T14:52:08.291382+00:00",
        "meta_object_name": "BEIDOU-3 M21 (C43)",
        "meta_object_id": "2019-078B",
        "meta_epoch": "2025-12-16T15:43:55.727904",
        "meta_mean_motion": 1.86227668,
        "meta_eccentricity": 0.00041169,
        "meta_inclination": 54.078,
        "meta_ra_of_asc_node": 306.2132,
        "meta_arg_of_pericenter": 11.942,
        "meta_mean_anomaly": 348.0544,
        "meta_ephemeris_type": 0,
        "meta_classification_type": "U",
        "meta_norad_cat_id": 44794,
        "meta_element_set_no": 999,
        "meta_rev_at_epoch": 4125,
        "meta_bstar": 0,
        "meta_mean_motion_dot": -9.5e-07,
        "meta_mean_motion_ddot": 0,
        "tle_line1": "1 44794U 19078B   25350.65550611 -.00000095  00000+0  00000+0 0  9990",
        "tle_line2": "2 44794  54.0780 306.2132 0004116  11.9420 348.0544  1.86227668 41256"
      },
      "geometry": {
        "type": "Point",
        "coordinates": [
          167.97167143156085,
          -42.64933262771349
        ]
      }
    },
    {
      "type": "Feature",
      "properties": {
        "norad_id": 44864,
        "name": "BEIDOU-3 M19 (C41)",
        "group": "beidou",
        "lat": 52.687895688510494,
        "lon": 129.35734421055432,
        "alt_km": 21564.586461847543,
        "timestamp": "2025-12-18T14:52:08.291393+00:00",
        "meta_object_name": "BEIDOU-3 M19 (C41)",
        "meta_object_id": "2019-090A",
        "meta_epoch": "2025-12-16T21:16:08.319360",
        "meta_mean_motion": 1.86231655,
        "meta_eccentricity": 0.00181701,
        "meta_inclination": 56.3969,
        "meta_ra_of_asc_node": 68.8236,
        "meta_arg_of_pericenter": 285.0658,
        "meta_mean_anomaly": 65.3992,
        "meta_ephemeris_type": 0,
        "meta_classification_type": "U",
        "meta_norad_cat_id": 44864,
        "meta_element_set_no": 999,
        "meta_rev_at_epoch": 4083,
        "meta_bstar": 0,
        "meta_mean_motion_dot": -7.7e-07,
        "meta_mean_motion_ddot": 0,
        "tle_line1": "1 44864U 19090A   25350.88620740 -.00000077  00000+0  00000+0 0  9998",
        "tle_line2": "2 44864  56.3969  68.8236 0018170 285.0658  65.3992  1.86231655 40836"
      },
      "geometry": {
        "type": "Point",
        "coordinates": [
          129.35734421055432,
          52.687895688510494
        ]
      }
    },
    {
      "type": "Feature",
      "properties": {
        "norad_id": 44865,
        "name": "BEIDOU-3 M20 (C42)",
        "group": "beidou",
        "lat": 14.845088798684452,
        "lon": -121.31904584064343,
        "alt_km": 21556.421170076872,
        "timestamp": "2025-12-18T14:52:08.291404+00:00",
        "meta_object_name": "BEIDOU-3 M20 (C42)",
        "meta_object_id": "2019-090B",
        "meta_epoch": "2025-12-14T14:16:43.218624",
        "meta_mean_motion": 1.86231589,
        "meta_eccentricity": 0.00151163,
        "meta_inclination": 56.3967,
        "meta_ra_of_asc_node": 68.9336,
        "meta_arg_of_pericenter": 297.6834,
        "meta_mean_anomaly": 46.2212,
        "meta_ephemeris_type": 0,
        "meta_classification_type": "U",
        "meta_norad_cat_id": 44865,
        "meta_element_set_no": 999,
        "meta_rev_at_epoch": 4077,
        "meta_bstar": 0,
        "meta_mean_motion_dot": -8.3e-07,
        "meta_mean_motion_ddot": 0,
        "tle_line1": "1 44865U 19090B   25348.59494466 -.00000083  00000+0  00000+0 0  9995",
        "tle_line2": "2 44865  56.3967  68.9336 0015116 297.6834  46.2212  1.86231589 40771"
      },
      "geometry": {
        "type": "Point",
        "coordinates": [
          -121.31904584064343,
          14.845088798684452
        ]
      }
    },
    {
      "type": "Feature",
      "properties": {
        "norad_id": 45344,
        "name": "BEIDOU-3 G2 (C60)",
        "group": "beidou",
        "lat": -0.5653448124459414,
        "lon": 30.565765078369147,
        "alt_km": 35789.08058597464,
        "timestamp": "2025-12-18T14:52:08.291415+00:00",
        "meta_object_name": "BEIDOU-3 G2 (C60)",
        "meta_object_id": "2020-017A",
        "meta_epoch": "2025-12-18T01:41:31.996608",
        "meta_mean_motion": 1.0027506,
        "meta_eccentricity": 0.00022263,
        "meta_inclination": 2.507,
        "meta_ra_of_asc_node": 43.9732,
        "meta_arg_of_pericenter": 232.7802,
        "meta_mean_anomaly": 275.5877,
        "meta_ephemeris_type": 0,
        "meta_classification_type": "U",
        "meta_norad_cat_id": 45344,
        "meta_element_set_no": 999,
        "meta_rev_at_epoch": 2144,
        "meta_bstar": 0,
        "meta_mean_motion_dot": -1.18e-06,
        "meta_mean_motion_ddot": 0,
        "tle_line1": "1 45344U 20017A   25352.07050922 -.00000118  00000+0  00000+0 0  9991",
        "tle_line2": "2 45344   2.5070  43.9732 0002226 232.7802 275.5877  1.00275060 21443"
      },
      "geometry": {
        "type": "Point",
        "coordinates": [
          30.565765078369147,
          -0.5653448124459414
        ]
      }
    },
    {
      "type": "Feature",
      "properties": {
        "norad_id": 45807,
        "name": "BEIDOU-3 G3 (C61)",
        "group": "beidou",
        "lat": -0.16680549515372797,
        "lon": 61.140800250481156,
        "alt_km": 35767.21760616247,
        "timestamp": "2025-12-18T14:52:08.291427+00:00",
        "meta_object_name": "BEIDOU-3 G3 (C61)",
        "meta_object_id": "2020-040A",
        "meta_epoch": "2025-12-18T03:58:21.586368",
        "meta_mean_motion": 1.00271623,
        "meta_eccentricity": 0.00064116,
        "meta_inclination": 2.004,
        "meta_ra_of_asc_node": 66.6339,
        "meta_arg_of_pericenter": 309.1299,
        "meta_mean_anomaly": 241.4399,
        "meta_ephemeris_type": 0,
        "meta_classification_type": "U",
        "meta_norad_cat_id": 45807,
        "meta_element_set_no": 999,
        "meta_rev_at_epoch": 2025,
        "meta_bstar": 0,
        "meta_mean_motion_dot": -3.3e-06,
        "meta_mean_motion_ddot": 0,
        "tle_line1": "1 45807U 20040A   25352.16552762 -.00000330  00000+0  00000+0 0  9996",
        "tle_line2": "2 45807   2.0040  66.6339 0006411 309.1299 241.4399  1.00271623 20253"
      },
      "geometry": {
        "type": "Point",
        "coordinates": [
          61.140800250481156,
          -0.16680549515372797
        ]
      }
    }
  ]
}